[{"OBJECT_NAME":"STARLINK-34442","OBJECT_ID":"2025-139J","EPOCH":"2025-11-04T09:37:52.375296","MEAN_MOTION":15.30196942,"ECCENTRICITY":0.000137,"INCLINATION":53.1589,"RA_OF_ASC_NODE":348.8714,"ARG_OF_PERICENTER":94.657,"MEAN_ANOMALY":265.4587,"EPHEMERIS_TYPE":0,"CLASSIFICATION_TYPE":"U","NORAD_CAT_ID":64672,"ELEMENT_SET_NO":999,"REV_AT_EPOCH":2110,"BSTAR":0.0010789,"MEAN_MOTION_DOT":0.00031728,"MEAN_MOTION_DDOT":0},{"OBJECT_NAME":"STARLINK-34288","OBJECT_ID":"2025-139K","EPOCH":"2025-11-04T09:46:59.454048","MEAN_MOTION":15.30204237,"ECCENTRICITY":9.45e-5,"INCLINATION":53.1574,"RA_OF_ASC_NODE":348.9115,"ARG_OF_PERICENTER":71.0398,"MEAN_ANOMALY":289.0705,"EPHEMERIS_TYPE":0,"CLASSIFICATION_TYPE":"U","NORAD_CAT_ID":64673,"ELEMENT_SET_NO":999,"REV_AT_EPOCH":2110,"BSTAR":0.00083107,"MEAN_MOTION_DOT":0.00024339,"MEAN_MOTION_DDOT":0},{"OBJECT_NAME":"STARLINK-34539","OBJECT_ID":"2025-139L","EPOCH":"2025-11-04T09:33:18.764640","MEAN_MOTION":15.30198732,"ECCENTRICITY":0.0001223,"INCLINATION":53.1583,"RA_OF_ASC_NODE":348.852,"ARG_OF_PERICENTER":95.5872,"MEAN_ANOMALY":264.5269,"EPHEMERIS_TYPE":0,"CLASSIFICATION_TYPE":"U","NORAD_CAT_ID":64674,"ELEMENT_SET_NO":999,"REV_AT_EPOCH":2100,"BSTAR":0.00085728,"MEAN_MOTION_DOT":0.00025116,"MEAN_MOTION_DDOT":0},{"OBJECT_NAME":"STARLINK-34590","OBJECT_ID":"2025-139M","EPOCH":"2025-11-04T09:10:41.011104","MEAN_MOTION":15.30201934,"ECCENTRICITY":8.68e-5,"INCLINATION":53.1613,"RA_OF_ASC_NODE":349.4639,"ARG_OF_PERICENTER":90.0667,"MEAN_ANOMALY":270.0433,"EPHEMERIS_TYPE":0,"CLASSIFICATION_TYPE":"U","NORAD_CAT_ID":64675,"ELEMENT_SET_NO":999,"REV_AT_EPOCH":2109,"BSTAR":0.00092821,"MEAN_MOTION_DOT":0.00027234,"MEAN_MOTION_DDOT":0},{"OBJECT_NAME":"STARLINK-34573","OBJECT_ID":"2025-139N","EPOCH":"2025-11-04T09:19:38.323200","MEAN_MOTION":15.30220029,"ECCENTRICITY":0.0001452,"INCLINATION":53.1595,"RA_OF_ASC_NODE":348.7922,"ARG_OF_PERICENTER":89.468,"MEAN_ANOMALY":270.6487,"EPHEMERIS_TYPE":0,"CLASSIFICATION_TYPE":"U","NORAD_CAT_ID":64676,"ELEMENT_SET_NO":999,"REV_AT_EPOCH":2110,"BSTAR":0.0009986,"MEAN_MOTION_DOT":0.00029352,"MEAN_MOTION_DDOT":0},{"OBJECT_NAME":"STARLINK-34605","OBJECT_ID":"2025-139P","EPOCH":"2025-11-04T09:03:12.346272","MEAN_MOTION":15.39621688,"ECCENTRICITY":0.000149,"INCLINATION":53.16,"RA_OF_ASC_NODE":344.4717,"ARG_OF_PERICENTER":63.0005,"MEAN_ANOMALY":297.1152,"EPHEMERIS_TYPE":0,"CLASSIFICATION_TYPE":"U","NORAD_CAT_ID":64677,"ELEMENT_SET_NO":999,"REV_AT_EPOCH":2116,"BSTAR":0.0011018,"MEAN_MOTION_DOT":0.00043928,"MEAN_MOTION_DDOT":0},{"OBJECT_NAME":"STARLINK-34525","OBJECT_ID":"2025-139Q","EPOCH":"2025-11-04T09:03:05.194080","MEAN_MOTION":15.30224178,"ECCENTRICITY":0.0001716,"INCLINATION":53.1616,"RA_OF_ASC_NODE":349.4286,"ARG_OF_PERICENTER":88.1758,"MEAN_ANOMALY":271.944,"EPHEMERIS_TYPE":0,"CLASSIFICATION_TYPE":"U","NORAD_CAT_ID":64678,"ELEMENT_SET_NO":999,"REV_AT_EPOCH":2109,"BSTAR":0.0015031,"MEAN_MOTION_DOT":0.0004446,"MEAN_MOTION_DDOT":0},{"OBJECT_NAME":"STARLINK-34489","OBJECT_ID":"2025-139R","EPOCH":"2025-11-04T10:28:01.352064","MEAN_MOTION":15.30202299,"ECCENTRICITY":0.0001617,"INCLINATION":53.1608,"RA_OF_ASC_NODE":349.0846,"ARG_OF_PERICENTER":68.3966,"MEAN_ANOMALY":291.7207,"EPHEMERIS_TYPE":0,"CLASSIFICATION_TYPE":"U","NORAD_CAT_ID":64679,"ELEMENT_SET_NO":999,"REV_AT_EPOCH":2110,"BSTAR":0.00039996,"MEAN_MOTION_DOT":0.00011506,"MEAN_MOTION_DDOT":0},{"OBJECT_NAME":"STARLINK-34502","OBJECT_ID":"2025-139S","EPOCH":"2025-11-04T09:27:14.331168","MEAN_MOTION":15.30208171,"ECCENTRICITY":0.0001533,"INCLINATION":53.1585,"RA_OF_ASC_NODE":348.8224,"ARG_OF_PERICENTER":60.6361,"MEAN_ANOMALY":299.4793,"EPHEMERIS_TYPE":0,"CLASSIFICATION_TYPE":"U","NORAD_CAT_ID":64680,"ELEMENT_SET_NO":999,"REV_AT_EPOCH":2110,"BSTAR":0.001154,"MEAN_MOTION_DOT":0.00033985,"MEAN_MOTION_DDOT":0},{"OBJECT_NAME":"STARLINK-34553","OBJECT_ID":"2025-139T","EPOCH":"2025-11-04T09:18:07.406208","MEAN_MOTION":15.30202307,"ECCENTRICITY":0.0002282,"INCLINATION":53.159,"RA_OF_ASC_NODE":348.7815,"ARG_OF_PERICENTER":34.0823,"MEAN_ANOMALY":326.0324,"EPHEMERIS_TYPE":0,"CLASSIFICATION_TYPE":"U","NORAD_CAT_ID":64681,"ELEMENT_SET_NO":999,"REV_AT_EPOCH":2110,"BSTAR":0.00090044,"MEAN_MOTION_DOT":0.00026407,"MEAN_MOTION_DDOT":0},{"OBJECT_NAME":"STARLINK-34551","OBJECT_ID":"2025-139U","EPOCH":"2025-11-04T09:09:15.621120","MEAN_MOTION":15.3967618,"ECCENTRICITY":0.0001497,"INCLINATION":53.1597,"RA_OF_ASC_NODE":343.7794,"ARG_OF_PERICENTER":79.7637,"MEAN_ANOMALY":280.3536,"EPHEMERIS_TYPE":0,"CLASSIFICATION_TYPE":"U","NORAD_CAT_ID":64682,"ELEMENT_SET_NO":999,"REV_AT_EPOCH":2117,"BSTAR":0.0011315,"MEAN_MOTION_DOT":0.00045214,"MEAN_MOTION_DDOT":0},{"OBJECT_NAME":"STARLINK-34550","OBJECT_ID":"2025-139V","EPOCH":"2025-11-04T09:54:36.425376","MEAN_MOTION":15.30192315,"ECCENTRICITY":0.0001664,"INCLINATION":53.1586,"RA_OF_ASC_NODE":348.9397,"ARG_OF_PERICENTER":77.2987,"MEAN_ANOMALY":282.82,"EPHEMERIS_TYPE":0,"CLASSIFICATION_TYPE":"U","NORAD_CAT_ID":64683,"ELEMENT_SET_NO":999,"REV_AT_EPOCH":2110,"BSTAR":0.0009706,"MEAN_MOTION_DOT":0.00028491,"MEAN_MOTION_DDOT":0},{"OBJECT_NAME":"STARLINK-34485","OBJECT_ID":"2025-139W","EPOCH":"2025-11-04T10:18:54.127296","MEAN_MOTION":15.30189698,"ECCENTRICITY":0.0001789,"INCLINATION":53.1602,"RA_OF_ASC_NODE":349.0413,"ARG_OF_PERICENTER":88.9894,"MEAN_ANOMALY":271.1312,"EPHEMERIS_TYPE":0,"CLASSIFICATION_TYPE":"U","NORAD_CAT_ID":64684,"ELEMENT_SET_NO":999,"REV_AT_EPOCH":2110,"BSTAR":0.00083736,"MEAN_MOTION_DOT":0.00024515,"MEAN_MOTION_DDOT":0},{"OBJECT_NAME":"STARLINK-34253","OBJECT_ID":"2025-139X","EPOCH":"2025-11-04T10:14:20.666112","MEAN_MOTION":15.30201926,"ECCENTRICITY":0.0001806,"INCLINATION":53.1593,"RA_OF_ASC_NODE":349.0229,"ARG_OF_PERICENTER":74.6598,"MEAN_ANOMALY":285.4602,"EPHEMERIS_TYPE":0,"CLASSIFICATION_TYPE":"U","NORAD_CAT_ID":64685,"ELEMENT_SET_NO":999,"REV_AT_EPOCH":2110,"BSTAR":0.00030074,"MEAN_MOTION_DOT":8.558e-5,"MEAN_MOTION_DDOT":0},{"OBJECT_NAME":"STARLINK-34565","OBJECT_ID":"2025-139Y","EPOCH":"2025-11-04T08:35:44.443392","MEAN_MOTION":15.30230064,"ECCENTRICITY":0.0001008,"INCLINATION":53.1589,"RA_OF_ASC_NODE":349.3063,"ARG_OF_PERICENTER":97.8561,"MEAN_ANOMALY":262.2554,"EPHEMERIS_TYPE":0,"CLASSIFICATION_TYPE":"U","NORAD_CAT_ID":64686,"ELEMENT_SET_NO":999,"REV_AT_EPOCH":2109,"BSTAR":0.000828,"MEAN_MOTION_DOT":0.00024267,"MEAN_MOTION_DDOT":0},{"OBJECT_NAME":"STARLINK-34554","OBJECT_ID":"2025-139Z","EPOCH":"2025-11-04T09:36:20.932128","MEAN_MOTION":15.30198551,"ECCENTRICITY":0.0001196,"INCLINATION":53.1581,"RA_OF_ASC_NODE":348.8609,"ARG_OF_PERICENTER":80.2828,"MEAN_ANOMALY":279.8307,"EPHEMERIS_TYPE":0,"CLASSIFICATION_TYPE":"U","NORAD_CAT_ID":64687,"ELEMENT_SET_NO":999,"REV_AT_EPOCH":2110,"BSTAR":0.00069329,"MEAN_MOTION_DOT":0.00020229,"MEAN_MOTION_DDOT":0}]
