STARLINK-34442          
1 64672U 25139J   25308.40130064  .00031728  00000+0  10789-2 0  9998
2 64672  53.1589 348.8714 0001370  94.6570 265.4587 15.30196942 21106
STARLINK-34288          
1 64673U 25139K   25308.40763257  .00024339  00000+0  83107-3 0  9990
2 64673  53.1574 348.9115 0000945  71.0398 289.0705 15.30204237 21102
STARLINK-34539          
1 64674U 25139L   25308.39813385  .00025116  00000+0  85728-3 0  9992
2 64674  53.1583 348.8520 0001223  95.5872 264.5269 15.30198732 21004
STARLINK-34590          
1 64675U 25139M   25308.38241911  .00027234  00000+0  92821-3 0  9997
2 64675  53.1613 349.4639 0000868  90.0667 270.0433 15.30201934 21096
STARLINK-34573          
1 64676U 25139N   25308.38863800  .00029352  00000+0  99860-3 0  9998
2 64676  53.1595 348.7922 0001452  89.4680 270.6487 15.30220029 21103
STARLINK-34605          
1 64677U 25139P   25308.37722623  .00043928  00000+0  11018-2 0  9998
2 64677  53.1600 344.4717 0001490  63.0005 297.1152 15.39621688 21161
STARLINK-34525          
1 64678U 25139Q   25308.37714345  .00044460  00000+0  15031-2 0  9992
2 64678  53.1616 349.4286 0001716  88.1758 271.9440 15.30224178 21095
STARLINK-34489          
1 64679U 25139R   25308.43612676  .00011506  00000+0  39996-3 0  9996
2 64679  53.1608 349.0846 0001617  68.3966 291.7207 15.30202299 21109
STARLINK-34502          
1 64680U 25139S   25308.39391587  .00033985  00000+0  11540-2 0  9997
2 64680  53.1585 348.8224 0001533  60.6361 299.4793 15.30208171 21103
STARLINK-34553          
1 64681U 25139T   25308.38758572  .00026407  00000+0  90044-3 0  9996
2 64681  53.1590 348.7815 0002282  34.0823 326.0324 15.30202307 21107
STARLINK-34551          
1 64682U 25139U   25308.38143080  .00045214  00000+0  11315-2 0  9999
2 64682  53.1597 343.7794 0001497  79.7637 280.3536 15.39676180 21179
STARLINK-34550          
1 64683U 25139V   25308.41292159  .00028491  00000+0  97060-3 0  9996
2 64683  53.1586 348.9397 0001664  77.2987 282.8200 15.30192315 21103
STARLINK-34485          
1 64684U 25139W   25308.42979314  .00024515  00000+0  83736-3 0  9991
2 64684  53.1602 349.0413 0001789  88.9894 271.1312 15.30189698 21103
STARLINK-34253          
1 64685U 25139X   25308.42662808  .00008558  00000+0  30074-3 0  9995
2 64685  53.1593 349.0229 0001806  74.6598 285.4602 15.30201926 21100
STARLINK-34565          
1 64686U 25139Y   25308.35815328  .00024267  00000+0  82800-3 0  9994
2 64686  53.1589 349.3063 0001008  97.8561 262.2554 15.30230064 21098
STARLINK-34554          
1 64687U 25139Z   25308.40024227  .00020229  00000+0  69329-3 0  9996
2 64687  53.1581 348.8609 0001196  80.2828 279.8307 15.30198551 21107
